     2.100          NAVIGATION                              RINEX VERSION / TYPE
fic2rin                                 05/30/2014 00:18:14 PGM / RUN BY / DATE
                                                            END OF HEADER
 2 14  5 29  1 59 28.0  .497987493873D-03  .216004991671D-11  .000000000000D+00
     .400000000000D+01  .158125000000D+02  .543272629486D-08  .279922418877D+01
     .614672899246D-06  .135540142655D-01  .477582216263D-05  .515360302925D+04
     .352768000000D+06 -.931322574615D-07 -.172612345764D+01 -.182539224625D-06
     .938980362130D+00  .273906250000D+03 -.242073385838D+01 -.821248494010D-08
     .156792245312D-09  .100000000000D+01  .179400000000D+04  .000000000000D+00
     .240000000000D+01  .000000000000D+00 -.204890966415D-07  .400000000000D+01
     .349206000000D+06  .400000000000D+01
 8 14  5 29  1 59 44.0  .138366594911D-04  .227373675443D-12  .000000000000D+00
     .200000000000D+01  .286875000000D+02  .386730394588D-08  .106728886043D+01
     .155158340931D-05  .137088466436D-01  .118277966976D-05  .515335704041D+04
     .352784000000D+06 -.987201929092D-07  .156348797721D+01  .199303030968D-06
     .996416258017D+00  .375000000000D+03 -.277421130469D+01 -.812962434577D-08
    -.185722021782D-10  .100000000000D+01  .179400000000D+04  .000000000000D+00
     .240000000000D+01  .000000000000D+00 -.419095158577D-08  .200000000000D+01
     .350736000000D+06  .400000000000D+01
32 14  5 29  1 59 44.0 -.418838579208D-03  .829913915368D-11  .000000000000D+00
     .100000000000D+01 -.210000000000D+02  .474305471012D-08  .211589777404D+01
    -.996515154839D-06  .113880448043D-01  .933371484280D-05  .515373324776D+04
     .352784000000D+06 -.689178705215D-07 -.569147610185D+00  .165775418282D-06
     .947819765206D+00  .193125000000D+03 -.152842090921D+00 -.796461747257D-08
    -.841820779500D-09  .100000000000D+01  .179400000000D+04  .000000000000D+00
     .240000000000D+01  .000000000000D+00 -.325962901115D-08  .100000000000D+01
     .351006000000D+06  .400000000000D+01
 2 14  5 29  3 59 28.0  .498002860695D-03  .216004991671D-11  .000000000000D+00
     .500000000000D+01  .201562500000D+02  .556487465651D-08 -.243372408670D+01
     .104494392872D-05  .135533835273D-01  .480748713017D-05  .515360422897D+04
     .359968000000D+06  .238418579102D-06 -.172618442036D+01 -.217929482460D-06
     .938981576352D+00  .273312500000D+03 -.242073937212D+01 -.837999191744D-08
     .368943939425D-09  .100000000000D+01  .179400000000D+04  .000000000000D+00
     .240000000000D+01  .000000000000D+00 -.204890966415D-07  .500000000000D+01
     .352806000000D+06  .400000000000D+01
 8 14  5 29  3 59 44.0  .138380564749D-04  .227373675443D-12  .000000000000D+00
     .300000000000D+01  .381875000000D+02  .390909140078D-08  .211775483297D+01
     .187754631042D-05  .137091473443D-01  .111572444439D-05  .515335456085D+04
     .359984000000D+06 -.270083546638D-06  .156342909768D+01  .100582838058D-06
     .996416474529D+00  .378687500000D+03 -.277430654212D+01 -.804390648956D-08
     .628597612185D-10  .100000000000D+01  .179400000000D+04  .000000000000D+00
     .240000000000D+01  .000000000000D+00 -.419095158577D-08  .300000000000D+01
     .352806000000D+06  .400000000000D+01
11 14  5 29  3 59 44.0 -.492794904858D-03 -.318323145621D-11  .000000000000D+00
     .100000000000D+01  .316250000000D+02  .640205238546D-08  .277491582995D+01
     .146403908730D-05  .149642843753D-01  .644847750664D-05  .515369702339D+04
     .359984000000D+06  .122934579849D-06 -.202075493790D+01 -.238418579102D-06
     .890306736963D+00  .214343750000D+03  .128694259412D+01 -.858750056101D-08
     .498592196938D-09  .100000000000D+01  .179400000000D+04  .000000000000D+00
     .240000000000D+01  .000000000000D+00 -.121071934700D-07  .100000000000D+01
     .352806000000D+06  .400000000000D+01
32 14  5 29  3 59 44.0 -.418778974563D-03  .829913915368D-11  .000000000000D+00
     .600000000000D+01 -.165937500000D+02  .475948396590D-08 -.311712470503D+01
    -.102072954178D-05  .113887725165D-01  .944174826145D-05  .515373189926D+04
     .359984000000D+06 -.167638063431D-06 -.569205070682D+00  .223517417908D-07
     .947814494312D+00  .189031250000D+03 -.152858263480D+00 -.784496963162D-08
    -.756460081027D-09  .100000000000D+01  .179400000000D+04  .000000000000D+00
     .240000000000D+01  .000000000000D+00 -.325962901115D-08  .600000000000D+01
     .352806000000D+06  .400000000000D+01
 1 14  5 29  4  0  0.0  .137034803629D-04  .113686837722D-11  .000000000000D+00
     .100000000000D+03  .211250000000D+02  .502735226654D-08 -.303579146008D+01
     .108964741230D-05  .307659734972D-02  .557303428650D-05  .515366894722D+04
     .360000000000D+06 -.670552253723D-07 -.169652675236D+01 -.465661287308D-07
     .960428310883D+00  .272906250000D+03  .305520433032D+00 -.808890836407D-08
     .300369654459D-09  .100000000000D+01  .179400000000D+04  .000000000000D+00
     .240000000000D+01  .000000000000D+00  .558793544769D-08  .100000000000D+03
     .352806000000D+06  .400000000000D+01
 3 14  5 29  4  0  0.0  .371001660824D-03  .488853402203D-11  .000000000000D+00
     .550000000000D+02 -.667500000000D+02  .461912097636D-08 -.231017220216D+01
    -.351108610630D-05  .170321621699D-01  .110678374767D-04  .515380202675D+04
     .360000000000D+06  .230967998505D-06 -.290064173510D+01  .596046447754D-07
     .938752167390D+00  .144125000000D+03  .138433879076D+01 -.768246286256D-08
     .526093342471D-09  .100000000000D+01  .179400000000D+04  .000000000000D+00
     .485000000000D+01  .000000000000D+00 -.465661287308D-08  .550000000000D+02
     .352806000000D+06  .400000000000D+01
 4 14  5 29  4  0  0.0  .696349889040D-05  .113686837722D-12  .000000000000D+00
     .660000000000D+02  .198125000000D+02  .568987986348D-08  .927983485506D+00
     .122189521790D-05  .105702735018D-01  .544637441635D-05  .515372905540D+04
     .360000000000D+06 -.124797224998D-06 -.171015909346D+01  .143423676491D-06
     .937992019064D+00  .266468750000D+03  .109926208637D+01 -.872357765774D-08
     .209294432239D-09  .100000000000D+01  .179400000000D+04  .000000000000D+00
     .240000000000D+01  .000000000000D+00 -.651925802231D-08  .660000000000D+02
     .352806000000D+06  .400000000000D+01
 5 14  5 29  4  0  0.0 -.369650311768D-03  .261479726760D-11  .000000000000D+00
     .540000000000D+02 -.217500000000D+02  .494199156807D-08 -.660137028786D-01
    -.124610960484D-05  .357376830652D-02  .816583633423D-05  .515360178375D+04
     .360000000000D+06 -.130385160446D-07 -.658018344511D+00  .651925802231D-07
     .947246946466D+00  .212781250000D+03  .308463543328D+00 -.817105464294D-08
    -.732173355102D-09  .100000000000D+01  .179400000000D+04  .000000000000D+00
     .240000000000D+01  .000000000000D+00 -.102445483208D-07  .540000000000D+02
     .352806000000D+06  .400000000000D+01
 6 14  5 29  4  0  0.0  .631017610431D-05  .432009983342D-11  .000000000000D+00
     .200000000000D+01  .220312500000D+02  .493591988659D-08  .484758136259D+00
     .120140612125D-05  .323366839439D-03  .516138970852D-05  .518122748566D+04
     .360000000000D+06 -.670552253723D-07 -.170522836903D+01 -.260770320892D-07
     .960368819856D+00  .275000000000D+03  .240388451068D+01 -.789282876800D-08
     .349300264044D-09  .100000000000D+01  .179400000000D+04  .000000000000D+00
     .240000000000D+01  .630000000000D+02  .605359673500D-08  .200000000000D+01
     .352806000000D+06  .400000000000D+01
 7 14  5 29  4  0  0.0  .351531896740D-03  .420641299570D-11  .000000000000D+00
     .103000000000D+03  .599062500000D+02  .437768234804D-08  .261251788060D+01
     .308454036713D-05  .737564382143D-02  .119209289551D-05  .515362808800D+04
     .360000000000D+06 -.128522515297D-06  .146390710844D+01 -.260770320892D-07
     .973181229019D+00  .362906250000D+03 -.283902599553D+01 -.822177104119D-08
     .186793494985D-09  .100000000000D+01  .179400000000D+04  .000000000000D+00
     .240000000000D+01  .000000000000D+00 -.107102096081D-07  .103000000000D+03
     .352806000000D+06  .400000000000D+01
10 14  5 29  4  0  0.0 -.127512961626D-03 -.159161572810D-11  .000000000000D+00
     .840000000000D+02 -.239062500000D+02  .520200239857D-08  .149231336998D+00
    -.104121863842D-05  .135698112426D-01  .823289155960D-05  .515373165131D+04
     .360000000000D+06 -.633299350739D-07 -.640761596075D+00  .169500708580D-06
     .942061137405D+00  .208750000000D+03  .865704742683D+00 -.846856703552D-08
    -.723601569481D-09  .100000000000D+01  .179400000000D+04  .000000000000D+00
     .240000000000D+01  .000000000000D+00 -.279396772385D-08  .840000000000D+02
     .352806000000D+06  .400000000000D+01
12 14  5 29  4  0  0.0  .207980629057D-03  .250111042988D-11  .000000000000D+00
     .610000000000D+02 -.124875000000D+03  .378551482474D-08  .215832372959D+01
    -.648014247417D-05  .515088310931D-02  .644288957119D-05  .515362067986D+04
     .360000000000D+06 -.132247805595D-06  .252736515257D+01  .353902578354D-07
     .987694521830D+00  .266718750000D+03  .440722754306D+00 -.781246827781D-08
    -.187150652719D-09  .100000000000D+01  .179400000000D+04  .000000000000D+00
     .240000000000D+01  .000000000000D+00 -.121071934700D-07  .610000000000D+02
     .352806000000D+06  .400000000000D+01
13 14  5 29  4  0  0.0 -.493181869388D-05 -.386535248253D-11  .000000000000D+00
     .480000000000D+02  .113187500000D+03  .383765985394D-08 -.135491768393D+01
     .583939254284D-05  .538571807556D-02  .986456871033D-05  .515359028435D+04
     .360000000000D+06 -.707805156708D-07  .499351731570D+00  .149011611938D-07
     .977953475528D+00  .199531250000D+03  .227036199972D+01 -.773067915667D-08
     .807176479283D-10  .100000000000D+01  .179400000000D+04  .000000000000D+00
     .240000000000D+01  .000000000000D+00 -.111758708954D-07  .480000000000D+02
     .352806000000D+06  .400000000000D+01
